[{"OBJECT_NAME":"STARLINK-5974","OBJECT_ID":"2023-058AD","EPOCH":"2026-03-09T21:50:56.837184","MEAN_MOTION":15.05653959,"ECCENTRICITY":0.00017848,"INCLINATION":97.6046,"RA_OF_ASC_NODE":71.4943,"ARG_OF_PERICENTER":84.256,"MEAN_ANOMALY":275.887,"EPHEMERIS_TYPE":0,"CLASSIFICATION_TYPE":"U","NORAD_CAT_ID":56344,"ELEMENT_SET_NO":999,"REV_AT_EPOCH":15823,"BSTAR":7.5029831e-5,"MEAN_MOTION_DOT":1.022e-5,"MEAN_MOTION_DDOT":0},{"OBJECT_NAME":"CZ-6A DEB","OBJECT_ID":"2024-140GN","EPOCH":"2026-03-09T13:15:37.384128","MEAN_MOTION":14.8336719,"ECCENTRICITY":0.01353257,"INCLINATION":88.6725,"RA_OF_ASC_NODE":255.8629,"ARG_OF_PERICENTER":152.9061,"MEAN_ANOMALY":207.9314,"EPHEMERIS_TYPE":0,"CLASSIFICATION_TYPE":"U","NORAD_CAT_ID":60811,"ELEMENT_SET_NO":999,"REV_AT_EPOCH":8463,"BSTAR":0.00091817467,"MEAN_MOTION_DOT":8.879e-5,"MEAN_MOTION_DDOT":0}]
